{"fetched_at":"2026-07-24T07:06:11.280Z","source":"https://celestrak.org/NORAD/elements/gp.php?GROUP=qianfan&FORMAT=JSON","constellation":"qianfan","records":[{"OBJECT_NAME":"QIANFAN-209","OBJECT_ID":"2026-153J","EPOCH":"2026-07-23T20:00:40.068576","CLASSIFICATION_TYPE":"U","MEAN_MOTION":14.19691915,"ECCENTRICITY":0.0008613,"INCLINATION":88.9931,"RA_OF_ASC_NODE":358.0577,"ARG_OF_PERICENTER":149.9391,"MEAN_ANOMALY":210.2295,"EPHEMERIS_TYPE":0,"NORAD_CAT_ID":69808,"ELEMENT_SET_NO":999,"REV_AT_EPOCH":277,"BSTAR":0.000081429,"MEAN_MOTION_DOT":0.00000187,"MEAN_MOTION_DDOT":0},{"OBJECT_NAME":"QIANFAN-210","OBJECT_ID":"2026-153K","EPOCH":"2026-07-23T19:52:56.842752","CLASSIFICATION_TYPE":"U","MEAN_MOTION":14.19937949,"ECCENTRICITY":0.0008783,"INCLINATION":88.9932,"RA_OF_ASC_NODE":358.0571,"ARG_OF_PERICENTER":152.1036,"MEAN_ANOMALY":208.0627,"EPHEMERIS_TYPE":0,"NORAD_CAT_ID":69809,"ELEMENT_SET_NO":999,"REV_AT_EPOCH":277,"BSTAR":0.000080417,"MEAN_MOTION_DOT":0.00000185,"MEAN_MOTION_DDOT":0},{"OBJECT_NAME":"QIANFAN-211","OBJECT_ID":"2026-153L","EPOCH":"2026-07-23T19:51:12.773088","CLASSIFICATION_TYPE":"U","MEAN_MOTION":14.20224811,"ECCENTRICITY":0.0008172,"INCLINATION":88.9931,"RA_OF_ASC_NODE":358.0567,"ARG_OF_PERICENTER":150.8131,"MEAN_ANOMALY":209.3518,"EPHEMERIS_TYPE":0,"NORAD_CAT_ID":69810,"ELEMENT_SET_NO":999,"REV_AT_EPOCH":277,"BSTAR":0.000070578,"MEAN_MOTION_DOT":0.00000165,"MEAN_MOTION_DDOT":0},{"OBJECT_NAME":"QIANFAN-212","OBJECT_ID":"2026-153M","EPOCH":"2026-07-23T19:41:04.117056","CLASSIFICATION_TYPE":"U","MEAN_MOTION":14.20820378,"ECCENTRICITY":0.0009328,"INCLINATION":88.9931,"RA_OF_ASC_NODE":358.0556,"ARG_OF_PERICENTER":155.5388,"MEAN_ANOMALY":204.6247,"EPHEMERIS_TYPE":0,"NORAD_CAT_ID":69811,"ELEMENT_SET_NO":999,"REV_AT_EPOCH":277,"BSTAR":0.000038138,"MEAN_MOTION_DOT":9.7e-7,"MEAN_MOTION_DDOT":0},{"OBJECT_NAME":"QIANFAN-213","OBJECT_ID":"2026-153N","EPOCH":"2026-07-23T19:38:25.784736","CLASSIFICATION_TYPE":"U","MEAN_MOTION":14.21099804,"ECCENTRICITY":0.0008238,"INCLINATION":88.9931,"RA_OF_ASC_NODE":358.0553,"ARG_OF_PERICENTER":151.2431,"MEAN_ANOMALY":208.9216,"EPHEMERIS_TYPE":0,"NORAD_CAT_ID":69812,"ELEMENT_SET_NO":999,"REV_AT_EPOCH":277,"BSTAR":0.000037793,"MEAN_MOTION_DOT":9.7e-7,"MEAN_MOTION_DDOT":0},{"OBJECT_NAME":"QIANFAN-214","OBJECT_ID":"2026-153P","EPOCH":"2026-07-23T20:59:07.206144","CLASSIFICATION_TYPE":"U","MEAN_MOTION":14.25492977,"ECCENTRICITY":0.0008907,"INCLINATION":88.9931,"RA_OF_ASC_NODE":358.0452,"ARG_OF_PERICENTER":155.9848,"MEAN_ANOMALY":204.1762,"EPHEMERIS_TYPE":0,"NORAD_CAT_ID":69813,"ELEMENT_SET_NO":999,"REV_AT_EPOCH":278,"BSTAR":0.000068468,"MEAN_MOTION_DOT":0.00000176,"MEAN_MOTION_DDOT":0},{"OBJECT_NAME":"QIANFAN-215","OBJECT_ID":"2026-153Q","EPOCH":"2026-07-23T20:53:27.083040","CLASSIFICATION_TYPE":"U","MEAN_MOTION":14.26680799,"ECCENTRICITY":0.0008933,"INCLINATION":88.993,"RA_OF_ASC_NODE":358.0442,"ARG_OF_PERICENTER":157.6395,"MEAN_ANOMALY":202.519,"EPHEMERIS_TYPE":0,"NORAD_CAT_ID":69814,"ELEMENT_SET_NO":999,"REV_AT_EPOCH":278,"BSTAR":0.000048175,"MEAN_MOTION_DOT":0.00000131,"MEAN_MOTION_DDOT":0},{"OBJECT_NAME":"QIANFAN-216","OBJECT_ID":"2026-153R","EPOCH":"2026-07-23T20:53:26.307168","CLASSIFICATION_TYPE":"U","MEAN_MOTION":14.26677942,"ECCENTRICITY":0.000917,"INCLINATION":88.9931,"RA_OF_ASC_NODE":358.0445,"ARG_OF_PERICENTER":158.0398,"MEAN_ANOMALY":202.1191,"EPHEMERIS_TYPE":0,"NORAD_CAT_ID":69815,"ELEMENT_SET_NO":999,"REV_AT_EPOCH":278,"BSTAR":0.000080061,"MEAN_MOTION_DOT":0.00000208,"MEAN_MOTION_DDOT":0},{"OBJECT_NAME":"QIANFAN-217","OBJECT_ID":"2026-153S","EPOCH":"2026-07-23T20:52:16.481280","CLASSIFICATION_TYPE":"U","MEAN_MOTION":14.26769021,"ECCENTRICITY":0.0008676,"INCLINATION":88.993,"RA_OF_ASC_NODE":358.0441,"ARG_OF_PERICENTER":155.616,"MEAN_ANOMALY":204.5446,"EPHEMERIS_TYPE":0,"NORAD_CAT_ID":69816,"ELEMENT_SET_NO":999,"REV_AT_EPOCH":278,"BSTAR":0.000040722,"MEAN_MOTION_DOT":0.00000113,"MEAN_MOTION_DDOT":0},{"OBJECT_NAME":"QIANFAN-218","OBJECT_ID":"2026-153T","EPOCH":"2026-07-23T20:51:26.707104","CLASSIFICATION_TYPE":"U","MEAN_MOTION":14.26812985,"ECCENTRICITY":0.0008438,"INCLINATION":88.9932,"RA_OF_ASC_NODE":358.0447,"ARG_OF_PERICENTER":153.1554,"MEAN_ANOMALY":207.0078,"EPHEMERIS_TYPE":0,"NORAD_CAT_ID":69817,"ELEMENT_SET_NO":999,"REV_AT_EPOCH":278,"BSTAR":0.000068795,"MEAN_MOTION_DOT":0.00000181,"MEAN_MOTION_DDOT":0},{"OBJECT_NAME":"QIANFAN-219","OBJECT_ID":"2026-155A","EPOCH":"2026-07-23T18:55:02.440416","CLASSIFICATION_TYPE":"U","MEAN_MOTION":14.2374272,"ECCENTRICITY":0.0031245,"INCLINATION":89.006,"RA_OF_ASC_NODE":59.9688,"ARG_OF_PERICENTER":192.7809,"MEAN_ANOMALY":167.2595,"EPHEMERIS_TYPE":0,"NORAD_CAT_ID":69848,"ELEMENT_SET_NO":999,"REV_AT_EPOCH":260,"BSTAR":0.000078311,"MEAN_MOTION_DOT":0.00000194,"MEAN_MOTION_DDOT":0},{"OBJECT_NAME":"QIANFAN-220","OBJECT_ID":"2026-155B","EPOCH":"2026-07-23T20:04:17.830272","CLASSIFICATION_TYPE":"U","MEAN_MOTION":14.17599523,"ECCENTRICITY":0.0030307,"INCLINATION":89.006,"RA_OF_ASC_NODE":59.9759,"ARG_OF_PERICENTER":193.2652,"MEAN_ANOMALY":166.7743,"EPHEMERIS_TYPE":0,"NORAD_CAT_ID":69849,"ELEMENT_SET_NO":999,"REV_AT_EPOCH":260,"BSTAR":0.00008383,"MEAN_MOTION_DOT":0.00000185,"MEAN_MOTION_DDOT":0},{"OBJECT_NAME":"QIANFAN-221","OBJECT_ID":"2026-155C","EPOCH":"2026-07-23T18:43:46.421760","CLASSIFICATION_TYPE":"U","MEAN_MOTION":14.26649962,"ECCENTRICITY":0.0031313,"INCLINATION":89.006,"RA_OF_ASC_NODE":59.9675,"ARG_OF_PERICENTER":194.2663,"MEAN_ANOMALY":165.765,"EPHEMERIS_TYPE":0,"NORAD_CAT_ID":69850,"ELEMENT_SET_NO":999,"REV_AT_EPOCH":260,"BSTAR":0.000083384,"MEAN_MOTION_DOT":0.00000217,"MEAN_MOTION_DDOT":0},{"OBJECT_NAME":"QIANFAN-222","OBJECT_ID":"2026-155D","EPOCH":"2026-07-23T19:50:21.850656","CLASSIFICATION_TYPE":"U","MEAN_MOTION":14.18563989,"ECCENTRICITY":0.0029493,"INCLINATION":89.0061,"RA_OF_ASC_NODE":59.9747,"ARG_OF_PERICENTER":194.4057,"MEAN_ANOMALY":165.6295,"EPHEMERIS_TYPE":0,"NORAD_CAT_ID":69851,"ELEMENT_SET_NO":999,"REV_AT_EPOCH":260,"BSTAR":0.000087285,"MEAN_MOTION_DOT":0.00000196,"MEAN_MOTION_DDOT":0},{"OBJECT_NAME":"QIANFAN-223","OBJECT_ID":"2026-155E","EPOCH":"2026-07-23T19:42:14.275584","CLASSIFICATION_TYPE":"U","MEAN_MOTION":14.18586582,"ECCENTRICITY":0.0029378,"INCLINATION":89.0063,"RA_OF_ASC_NODE":59.9742,"ARG_OF_PERICENTER":193.8902,"MEAN_ANOMALY":166.1482,"EPHEMERIS_TYPE":0,"NORAD_CAT_ID":69852,"ELEMENT_SET_NO":999,"REV_AT_EPOCH":260,"BSTAR":0.000090204,"MEAN_MOTION_DOT":0.00000202,"MEAN_MOTION_DDOT":0},{"OBJECT_NAME":"QIANFAN-224","OBJECT_ID":"2026-155F","EPOCH":"2026-07-23T19:32:32.903808","CLASSIFICATION_TYPE":"U","MEAN_MOTION":14.20221049,"ECCENTRICITY":0.0030419,"INCLINATION":89.0048,"RA_OF_ASC_NODE":59.9708,"ARG_OF_PERICENTER":194.2966,"MEAN_ANOMALY":165.7367,"EPHEMERIS_TYPE":0,"NORAD_CAT_ID":69853,"ELEMENT_SET_NO":999,"REV_AT_EPOCH":260,"BSTAR":0.000089447,"MEAN_MOTION_DOT":0.00000206,"MEAN_MOTION_DDOT":0}]}
